{"type": "FeatureCollection", "features": [ {"type": "Feature", "properties": {"norad_id": 66860, "name": "STARLINK-35987", "group": "last-30-days", "lat": -36.96774660454573, "lon": -93.97156849140457, "alt_km": 417.4670283873147, "timestamp": "2025-12-27T16:33:28.973621+00:00", "meta": {"OBJECT_NAME": "STARLINK-35987", "OBJECT_ID": "2025-281N", "EPOCH": "2025-12-27T12:00:02.000160", "MEAN_MOTION": 15.50561204, "ECCENTRICITY": 0.0001326, "INCLINATION": 43.0004, "RA_OF_ASC_NODE": 33.2668, "ARG_OF_PERICENTER": 276.8172, "MEAN_ANOMALY": 343.7751, "EPHEMERIS_TYPE": 0, "CLASSIFICATION_TYPE": "U", "NORAD_CAT_ID": 66860, "ELEMENT_SET_NO": 999, "REV_AT_EPOCH": 376, "BSTAR": -0.00010399, "MEAN_MOTION_DOT": -6.433e-05, "MEAN_MOTION_DDOT": 0}, "tle": {"line1": "1 66860U 25281N   25361.50002315 -.00006433  00000+0 -10399-3 0  9999", "line2": "2 66860  43.0004  33.2668 0001326 276.8172 343.7751 15.50561204  3767"}}, "geometry": {"type": "Point", "coordinates": [-93.97156849140457, -36.96774660454573]}}, {"type": "Feature", "properties": {"norad_id": 66861, "name": "STARLINK-35991", "group": "last-30-days", "lat": -34.48474988583372, "lon": -100.3433097794089, "alt_km": 417.6553693374508, "timestamp": "2025-12-27T16:33:28.973630+00:00", "meta": {"OBJECT_NAME": "STARLINK-35991", "OBJECT_ID": "2025-281P", "EPOCH": "2025-12-27T12:00:02.000160", "MEAN_MOTION": 15.50555579, "ECCENTRICITY": 8.14e-05, "INCLINATION": 43.0004, "RA_OF_ASC_NODE": 33.2814, "ARG_OF_PERICENTER": 277.1776, "MEAN_ANOMALY": 337.6596, "EPHEMERIS_TYPE": 0, "CLASSIFICATION_TYPE": "U", "NORAD_CAT_ID": 66861, "ELEMENT_SET_NO": 999, "REV_AT_EPOCH": 375, "BSTAR": 0.00014067, "MEAN_MOTION_DOT": 7.913e-05, "MEAN_MOTION_DDOT": 0}, "tle": {"line1": "1 66861U 25281P   25361.50002315  .00007913  00000+0  14067-3 0  9998", "line2": "2 66861  43.0004  33.2814 0000814 277.1776 337.6596 15.50555579  3752"}}, "geometry": {"type": "Point", "coordinates": [-100.3433097794089, -34.48474988583372]}}, {"type": "Feature", "properties": {"norad_id": 66862, "name": "STARLINK-35974", "group": "last-30-days", "lat": -33.58638451417342, "lon": -102.37690146312552, "alt_km": 417.5388449468146, "timestamp": "2025-12-27T16:33:28.973640+00:00", "meta": {"OBJECT_NAME": "STARLINK-35974", "OBJECT_ID": "2025-281Q", "EPOCH": "2025-12-27T12:00:02.000160", "MEAN_MOTION": 15.50562439, "ECCENTRICITY": 0.0001035, "INCLINATION": 43.0004, "RA_OF_ASC_NODE": 33.2862, "ARG_OF_PERICENTER": 281.1924, "MEAN_ANOMALY": 331.7286, "EPHEMERIS_TYPE": 0, "CLASSIFICATION_TYPE": "U", "NORAD_CAT_ID": 66862, "ELEMENT_SET_NO": 999, "REV_AT_EPOCH": 365, "BSTAR": -5.9267e-05, "MEAN_MOTION_DOT": -3.814e-05, "MEAN_MOTION_DDOT": 0}, "tle": {"line1": "1 66862U 25281Q   25361.50002315 -.00003814  00000+0 -59267-4 0  9999", "line2": "2 66862  43.0004  33.2862 0001035 281.1924 331.7286 15.50562439  3655"}}, "geometry": {"type": "Point", "coordinates": [-102.37690146312552, -33.58638451417342]}}, {"type": "Feature", "properties": {"norad_id": 66863, "name": "STARLINK-36134", "group": "last-30-days", "lat": -35.350730456087675, "lon": -98.2605785996503, "alt_km": 417.68990079910054, "timestamp": "2025-12-27T16:33:28.973662+00:00", "meta": {"OBJECT_NAME": "STARLINK-36134", "OBJECT_ID": "2025-281R", "EPOCH": "2025-12-27T12:00:02.000160", "MEAN_MOTION": 15.50559876, "ECCENTRICITY": 8.42e-05, "INCLINATION": 43.0004, "RA_OF_ASC_NODE": 33.2768, "ARG_OF_PERICENTER": 279.6651, "MEAN_ANOMALY": 337.0913, "EPHEMERIS_TYPE": 0, "CLASSIFICATION_TYPE": "U", "NORAD_CAT_ID": 66863, "ELEMENT_SET_NO": 999, "REV_AT_EPOCH": 375, "BSTAR": -2.3082e-05, "MEAN_MOTION_DOT": -1.694e-05, "MEAN_MOTION_DDOT": 0}, "tle": {"line1": "1 66863U 25281R   25361.50002315 -.00001694  00000+0 -23082-4 0  9990", "line2": "2 66863  43.0004  33.2768 0000842 279.6651 337.0913 15.50559876  3753"}}, "geometry": {"type": "Point", "coordinates": [-98.2605785996503, -35.350730456087675]}}, {"type": "Feature", "properties": {"norad_id": 66864, "name": "STARLINK-36070", "group": "last-30-days", "lat": -36.177697945603086, "lon": -96.13970641607726, "alt_km": 417.6657106995217, "timestamp": "2025-12-27T16:33:28.973674+00:00", "meta": {"OBJECT_NAME": "STARLINK-36070", "OBJECT_ID": "2025-281S", "EPOCH": "2025-12-27T12:00:02.000160", "MEAN_MOTION": 15.50606605, "ECCENTRICITY": 9.34e-05, "INCLINATION": 43.0004, "RA_OF_ASC_NODE": 33.2724, "ARG_OF_PERICENTER": 285.9706, "MEAN_ANOMALY": 332.6797, "EPHEMERIS_TYPE": 0, "CLASSIFICATION_TYPE": "U", "NORAD_CAT_ID": 66864, "ELEMENT_SET_NO": 999, "REV_AT_EPOCH": 379, "BSTAR": -0.0012721, "MEAN_MOTION_DOT": -0.00074334, "MEAN_MOTION_DDOT": 0}, "tle": {"line1": "1 66864U 25281S   25361.50002315 -.00074334  00000+0 -12721-2 0  9998", "line2": "2 66864  43.0004  33.2724 0000934 285.9706 332.6797 15.50606605  3797"}}, "geometry": {"type": "Point", "coordinates": [-96.13970641607726, -36.177697945603086]}}, {"type": "Feature", "properties": {"norad_id": 66865, "name": "STARLINK-36117", "group": "last-30-days", "lat": -37.71376203972292, "lon": -91.76833774910075, "alt_km": 417.62324400376656, "timestamp": "2025-12-27T16:33:28.973684+00:00", "meta": {"OBJECT_NAME": "STARLINK-36117", "OBJECT_ID": "2025-281T", "EPOCH": "2025-12-27T12:00:02.000160", "MEAN_MOTION": 15.50481556, "ECCENTRICITY": 0.000125, "INCLINATION": 43.0005, "RA_OF_ASC_NODE": 33.2632, "ARG_OF_PERICENTER": 278.6097, "MEAN_ANOMALY": 343.9275, "EPHEMERIS_TYPE": 0, "CLASSIFICATION_TYPE": "U", "NORAD_CAT_ID": 66865, "ELEMENT_SET_NO": 999, "REV_AT_EPOCH": 376, "BSTAR": 0.0022846, "MEAN_MOTION_DOT": 0.00135559, "MEAN_MOTION_DDOT": 0}, "tle": {"line1": "1 66865U 25281T   25361.50002315  .00135559  00000+0  22846-2 0  9993", "line2": "2 66865  43.0005  33.2632 0001250 278.6097 343.9275 15.50481556  3760"}}, "geometry": {"type": "Point", "coordinates": [-91.76833774910075, -37.71376203972292]}}, {"type": "Feature", "properties": {"norad_id": 66866, "name": "STARLINK-36126", "group": "last-30-days", "lat": -38.42308274434164, "lon": -89.50498545622922, "alt_km": 417.7052287434344, "timestamp": "2025-12-27T16:33:28.973694+00:00", "meta": {"OBJECT_NAME": "STARLINK-36126", "OBJECT_ID": "2025-281U", "EPOCH": "2025-12-27T12:00:02.000160", "MEAN_MOTION": 15.50597495, "ECCENTRICITY": 9.14e-05, "INCLINATION": 43.0004, "RA_OF_ASC_NODE": 33.2582, "ARG_OF_PERICENTER": 278.9572, "MEAN_ANOMALY": 345.4475, "EPHEMERIS_TYPE": 0, "CLASSIFICATION_TYPE": "U", "NORAD_CAT_ID": 66866, "ELEMENT_SET_NO": 999, "REV_AT_EPOCH": 379, "BSTAR": -0.0010121, "MEAN_MOTION_DOT": -0.00059308, "MEAN_MOTION_DDOT": 0}, "tle": {"line1": "1 66866U 25281U   25361.50002315 -.00059308  00000+0 -10121-2 0  9996", "line2": "2 66866  43.0004  33.2582 0000914 278.9572 345.4475 15.50597495  3793"}}, "geometry": {"type": "Point", "coordinates": [-89.50498545622922, -38.42308274434164]}}, {"type": "Feature", "properties": {"norad_id": 66867, "name": "STARLINK-36101", "group": "last-30-days", "lat": -39.0881223377025, "lon": -87.19776506540587, "alt_km": 417.74553414568254, "timestamp": "2025-12-27T16:33:28.973706+00:00", "meta": {"OBJECT_NAME": "STARLINK-36101", "OBJECT_ID": "2025-281V", "EPOCH": "2025-12-27T12:00:02.000160", "MEAN_MOTION": 15.50557186, "ECCENTRICITY": 8.49e-05, "INCLINATION": 43.0004, "RA_OF_ASC_NODE": 33.2526, "ARG_OF_PERICENTER": 262.05, "MEAN_ANOMALY": 4.2963, "EPHEMERIS_TYPE": 0, "CLASSIFICATION_TYPE": "U", "NORAD_CAT_ID": 66867, "ELEMENT_SET_NO": 999, "REV_AT_EPOCH": 359, "BSTAR": -3.7817e-06, "MEAN_MOTION_DOT": -5.63e-06, "MEAN_MOTION_DDOT": 0}, "tle": {"line1": "1 66867U 25281V   25361.50002315 -.00000563  00000+0 -37817-5 0  9990", "line2": "2 66867  43.0004  33.2526 0000849 262.0500   4.2963 15.50557186  3597"}}, "geometry": {"type": "Point", "coordinates": [-87.19776506540587, -39.0881223377025]}}, {"type": "Feature", "properties": {"norad_id": 66868, "name": "STARLINK-36108", "group": "last-30-days", "lat": -39.70343228615631, "lon": -84.8605957202106, "alt_km": 417.70290919535546, "timestamp": "2025-12-27T16:33:28.973718+00:00", "meta": {"OBJECT_NAME": "STARLINK-36108", "OBJECT_ID": "2025-281W", "EPOCH": "2025-12-27T12:00:02.000160", "MEAN_MOTION": 15.50563422, "ECCENTRICITY": 0.0001056, "INCLINATION": 43.0004, "RA_OF_ASC_NODE": 33.2473, "ARG_OF_PERICENTER": 278.8808, "MEAN_ANOMALY": 349.3806, "EPHEMERIS_TYPE": 0, "CLASSIFICATION_TYPE": "U", "NORAD_CAT_ID": 66868, "ELEMENT_SET_NO": 999, "REV_AT_EPOCH": 359, "BSTAR": -0.00015448, "MEAN_MOTION_DOT": -9.388e-05, "MEAN_MOTION_DDOT": 0}, "tle": {"line1": "1 66868U 25281W   25361.50002315 -.00009388  00000+0 -15448-3 0  9999", "line2": "2 66868  43.0004  33.2473 0001056 278.8808 349.3806 15.50563422  3595"}}, "geometry": {"type": "Point", "coordinates": [-84.8605957202106, -39.70343228615631]}}, {"type": "Feature", "properties": {"norad_id": 66869, "name": "STARLINK-36092", "group": "last-30-days", "lat": -40.267157747898544, "lon": -82.49886942324385, "alt_km": 417.692047141958, "timestamp": "2025-12-27T16:33:28.973728+00:00", "meta": {"OBJECT_NAME": "STARLINK-36092", "OBJECT_ID": "2025-281X", "EPOCH": "2025-12-27T12:00:02.000160", "MEAN_MOTION": 15.5061806, "ECCENTRICITY": 9.58e-05, "INCLINATION": 43.0005, "RA_OF_ASC_NODE": 33.2429, "ARG_OF_PERICENTER": 278.3611, "MEAN_ANOMALY": 351.7728, "EPHEMERIS_TYPE": 0, "CLASSIFICATION_TYPE": "U", "NORAD_CAT_ID": 66869, "ELEMENT_SET_NO": 999, "REV_AT_EPOCH": 379, "BSTAR": -0.0013997, "MEAN_MOTION_DOT": -0.00081711, "MEAN_MOTION_DDOT": 0}, "tle": {"line1": "1 66869U 25281X   25361.50002315 -.00081711  00000+0 -13997-2 0  9996", "line2": "2 66869  43.0005  33.2429 0000958 278.3611 351.7728 15.50618060  3796"}}, "geometry": {"type": "Point", "coordinates": [-82.49886942324385, -40.267157747898544]}}]}